*******************************************************************************
Ephemeris / PORT_LOGIN Sat Apr 12 20:33:01 2014 Pasadena, USA    / Horizons
*******************************************************************************
Target body name: 887 Alinda (1918 DB)            {source: JPL#120}
Center body name: Earth (399)                     {source: DE-0431LE-0431}
Center-site name: GEOCENTRIC
*******************************************************************************
Start time      : A.D. 2014-Apr-12 00:00:00.0000 UT
Stop  time      : A.D. 2014-Apr-14 00:00:00.0000 UT
Step-size       : 10 minutes
*******************************************************************************
Target pole/equ : No model available
Target radii    : 2.1 km
Center geodetic : 0.00000000,0.00000000,0.0000000 {E-lon(deg),Lat(deg),Alt(km)}
Center cylindric: 0.00000000,0.00000000,0.0000000 {E-lon(deg),Dxy(km),Dz(km)}
Center pole/equ : High-precision EOP model        {East-longitude +}
Center radii    : 6378.1 x 6378.1 x 6356.8 km     {Equator, meridian, pole}
Target primary  : Sun
Vis. interferer : MOON (R_eq= 1737.400) km        {source: DE-0431LE-0431}
Rel. light bend : Sun, EARTH                      {source: DE-0431LE-0431}
Rel. lght bnd GM: 1.3271E+11, 3.9860E+05 km^3/s^2
Small-body perts: Yes                             {source: SB431-BIG16}
Atmos refraction: NO (AIRLESS)
RA format       : DEG
Time format     : BOTH
EOP file        : eop.140411.p140703
EOP coverage    : DATA-BASED 1962-JAN-20 TO 2014-APR-11. PREDICTS-> 2014-JUL-02
Units conversion: 1 au= 149597870.700 km, c= 299792.458 km/s, 1 day= 86400.0 s
Table cut-offs 1: Elevation (-90.0deg=NO ),Airmass (>38.000=NO), Daylight (NO )
Table cut-offs 2: Solar Elongation (  0.0,180.0=NO ),Local Hour Angle( 0.0=NO )
Table format    : Comma Separated Values (spreadsheet)
*******************************************************************************
Initial FK5/J2000.0 heliocentric ecliptic osculating elements (au, days, deg.):
  EPOCH=  2451466.5 ! 1999-Oct-15.00 (CT)          Residual RMS= .61537
   EC= .5631517686125179   QR= 1.085386561284059   TP= 2452123.3353508371
   OM= 110.7061296612199   W=  350.0392181184062   IN= 9.307124228489517
Asteroid physical parameters (km, seconds, rotational period in hours):
   GM= n.a.                RAD= 2.1                ROTPER= 73.97
   H= 13.4                 G= -.120                B-V= .832
                           ALBEDO= .310            STYP= S
**********************************************************************************************
 Date__(UT)__HR:MN, Date_________JDUT, , ,R.A._(ICRF/J2000.0), DEC_(ICRF/J2000.0),   1-way_LT,
**********************************************************************************************
$$SOE
 2014-Apr-13 21:00, 2456761.375000000, , ,261.7916234,-14.9206837,  20.730819,
 2014-Apr-13 21:10, 2456761.381944444, , ,261.7911086,-14.9205087,  20.730327,
 2014-Apr-13 21:20, 2456761.388888889, , ,261.7905935,-14.9203337,  20.729835,
 2014-Apr-13 21:30, 2456761.395833333, , ,261.7900780,-14.9201586,  20.729343,
 2014-Apr-13 21:40, 2456761.402777778, , ,261.7895623,-14.9199836,  20.728851,
 2014-Apr-13 21:50, 2456761.409722222, , ,261.7890463,-14.9198086,  20.728359,
 2014-Apr-13 22:00, 2456761.416666667, , ,261.7885299,-14.9196335,  20.727867,
 2014-Apr-13 22:10, 2456761.423611111, , ,261.7880133,-14.9194585,  20.727376,
 2014-Apr-13 22:20, 2456761.430555556, , ,261.7874964,-14.9192835,  20.726884,
 2014-Apr-13 22:30, 2456761.437500000, , ,261.7869791,-14.9191084,  20.726392,
 2014-Apr-13 22:40, 2456761.444444444, , ,261.7864616,-14.9189334,  20.725901,
 2014-Apr-13 22:50, 2456761.451388889, , ,261.7859438,-14.9187584,  20.725409,
 2014-Apr-13 23:00, 2456761.458333333, , ,261.7854256,-14.9185833,  20.724918,
 2014-Apr-13 23:10, 2456761.465277778, , ,261.7849072,-14.9184083,  20.724427,
 2014-Apr-13 23:20, 2456761.472222222, , ,261.7843884,-14.9182333,  20.723935,
 2014-Apr-13 23:30, 2456761.479166667, , ,261.7838694,-14.9180582,  20.723444,
 2014-Apr-13 23:40, 2456761.486111111, , ,261.7833501,-14.9178832,  20.722953,
 2014-Apr-13 23:50, 2456761.493055556, , ,261.7828304,-14.9177081,  20.722462,
 2014-Apr-14 00:00, 2456761.500000000, , ,261.7823105,-14.9175331,  20.721970,
$$EOE
**********************************************************************************************